NORAD_CAT_ID,OBJECT_NAME,OBJECT_TYPE,EPOCH,MEAN_MOTION,ECCENTRICITY,INCLINATION,RA_OF_ASC_NODE,ARG_OF_PERICENTER,MEAN_ANOMALY,BSTAR,MEAN_MOTION_DOT,MEAN_MOTION_DDOT,TLE_LINE0,TLE_LINE1,TLE_LINE2,SEMIMAJOR_AXIS,PERIOD,APOGEE,PERIGEE,DECAYED
51131.0,STARLINK-3388,PAYLOAD,2022-03-08 14:00:01,15.73172869,0.0003016,53.2172,34.2411,13.3775,152.8769,-0.0052999,-0.00686269,0.0,0 STARLINK-3388,1 51131U 22005AD  22067.58334491 -.00686269  00000-0 -52999-2 0  9999,2 51131  53.2172  34.2411 0003016  13.3775 152.8769 15.73172869  8953,6727.973000000001,91.535,351.867,347.80800000000005,0.0
51131.0,STARLINK-3388,PAYLOAD,2022-03-08 22:00:00,15.72687159,0.0003066,53.2175,32.5868,10.1936,244.6642,-0.0056971,-0.00719584,0.0,0 STARLINK-3388,1 51131U 22005AD  22067.91667824 -.00719584  00000-0 -56971-2 0  9996,2 51131  53.2175  32.5868 0003066  10.1936 244.6642 15.72687159  3713,6729.358,91.563,353.286,349.159,0.0
51131.0,STARLINK-3388,PAYLOAD,2022-03-09 06:00:00,15.72177698,0.000317,53.2174,30.9397,7.7979,335.0587,-0.0058427,-0.00721874,0.0,0 STARLINK-3388,1 51131U 22005AD  22068.25001157 -.00721874  00000-0 -58427-2 0  9998,2 51131  53.2174  30.9397 0003170   7.7979 335.0587 15.72177698  9065,6730.811,91.593,354.81,350.543,0.0
51131.0,STARLINK-3388,PAYLOAD,2022-03-09 14:00:01,15.7166921,0.0003039,53.2174,29.2904,357.9496,72.2942,-0.0059865,-0.00723582,0.0,0 STARLINK-3388,1 51131U 22005AD  22068.58334491 -.00723582  00000-0 -59865-2 0  9999,2 51131  53.2174  29.2904 0003039 357.9496  72.2942 15.71669210  3691,6732.263000000001,91.622,356.1740000000001,352.082,0.0
51131.0,STARLINK-3388,PAYLOAD,2022-03-09 22:00:01,15.71159468,0.0003153,53.2176,27.6428,341.0957,175.9885,-0.006124,-0.00724325,0.0,0 STARLINK-3388,1 51131U 22005AD  22068.91668981 -.00724325  00000-0 -61240-2 0  9996,2 51131  53.2176  27.6428 0003153 341.0957 175.9885 15.71159468  3695,6733.719,91.652,357.707,353.461,0.0
51131.0,STARLINK-3388,PAYLOAD,2022-03-10 14:00:01,15.70130312,0.0002086,53.2175,24.3534,300.5004,28.2313,-0.0062361,-0.0070741,0.0,0 STARLINK-3388,1 51131U 22005AD  22069.58334491 -.00707410  00000-0 -62361-2 0  9997,2 51131  53.2175  24.3534 0002086 300.5004  28.2313 15.70130312  3695,6736.661,91.712,359.932,357.121,0.0
51131.0,STARLINK-3388,PAYLOAD,2022-03-10 20:00:01,15.69744162,0.000434,53.2175,23.1202,296.9777,5.5152,-0.0062711999999999,-0.00701182,0.0,0 STARLINK-3388,1 51131U 22005AD  22069.83334491 -.00701182  00000-0 -62712-2 0  9995,2 51131  53.2175  23.1202 0004340 296.9777   5.5152 15.69744162  9310,6737.766,91.735,362.555,356.707,0.0
51131.0,STARLINK-3388,PAYLOAD,2022-03-10 22:00:01,15.69632693,0.0004207,53.2176,22.71,303.8292,109.8997,-0.006571,-0.00728807,0.0,0 STARLINK-3388,1 51131U 22005AD  22069.91668981 -.00728807  00000-0 -65710-2 0  9992,2 51131  53.2176  22.7100 0004207 303.8292 109.8997 15.69632693  3702,6738.085,91.741,362.785,357.115,0.0
51131.0,STARLINK-3388,PAYLOAD,2022-03-11 12:00:00,15.6874335,0.0004392,53.2172,19.8386,264.3833,206.4421,-0.0068785,-0.00734727,0.0,0 STARLINK-3388,1 51131U 22005AD  22070.50001157 -.00734727  00000-0 -68785-2 0  9998,2 51131  53.2172  19.8386 0004392 264.3833 206.4421 15.68743350  9410,6740.630999999999,91.793,365.457,359.536,0.0
51131.0,STARLINK-3388,PAYLOAD,2022-03-11 14:00:01,15.68607147,0.000378,53.2175,19.428,260.4437,321.2556,-0.0067734,-0.00720462,0.0,0 STARLINK-3388,1 51131U 22005AD  22070.58334491 -.00720462  00000-0 -67734-2 0  9990,2 51131  53.2175  19.4280 0003780 260.4437 321.2556 15.68607147  3680,6741.022,91.801,365.435,360.338,0.0
51131.0,STARLINK-3388,PAYLOAD,2022-03-11 22:00:00,15.68012559,0.0001391,53.2172,17.7927,291.0923,13.744000000000002,-0.005712,-0.0060097,0.0,0 STARLINK-3388,1 51131U 22005AD  22070.91667824 -.00600970  00000-0 -57120-2 0  9995,2 51131  53.2172  17.7927 0001391 291.0923  13.7440 15.68012559  3673,6742.726,91.836,365.528,363.653,0.0
51131.0,STARLINK-3388,PAYLOAD,2022-03-12 06:00:00,15.67585574,9.82e-05,53.2176,16.1523,14.8506,12.4305,-0.0070233,-0.0071589,0.0,0 STARLINK-3388,1 51131U 22005AD  22071.25001157 -.00715890  00000-0 -70233-2 0  9992,2 51131  53.2176  16.1523 0000982  14.8506  12.4305 15.67585574  9533,6743.95,91.861,366.477,365.153,0.0
51131.0,STARLINK-3388,PAYLOAD,2022-03-12 14:00:01,15.6707541,0.0001196,53.2175,14.5136,57.4537,51.7003,-0.0071681,-0.00715621,0.0,0 STARLINK-3388,1 51131U 22005AD  22071.58334491 -.00715621  00000-0 -71681-2 0  9998,2 51131  53.2175  14.5136 0001196  57.4537  51.7003 15.67075410  3694,6745.413000000001,91.891,368.085,366.472,0.0
51131.0,STARLINK-3388,PAYLOAD,2022-03-12 22:00:00,15.66565402,0.0001392,53.2177,12.878,56.095,134.3182,-0.0073135,-0.00715199,0.0,0 STARLINK-3388,1 51131U 22005AD  22071.91667824 -.00715199  00000-0 -73135-2 0  9990,2 51131  53.2177  12.8780 0001392  56.0950 134.3182 15.66565402  3706,6746.877,91.921,369.682,367.80300000000005,0.0
51131.0,STARLINK-3388,PAYLOAD,2022-03-13 06:00:00,15.66054387,0.0001228,53.2175,11.2455,68.0214,203.0375,-0.0074498,-0.00713677,0.0,0 STARLINK-3388,1 51131U 22005AD  22072.25001157 -.00713677  00000-0 -74498-2 0  9991,2 51131  53.2175  11.2455 0001228  68.0214 203.0375 15.66054387  9697,6748.345,91.951,371.039,369.381,0.0
51131.0,STARLINK-3388,PAYLOAD,2022-03-13 14:00:01,15.65546453,0.0001118,53.2174,9.6105,59.0972,291.9958,-0.0076446,-0.00717136,0.0,0 STARLINK-3388,1 51131U 22005AD  22072.58334491 -.00717136  00000-0 -76446-2 0  9996,2 51131  53.2174   9.6105 0001118  59.0972 291.9958 15.65546453  3694,6749.805,91.981,372.424,370.915,0.0
51131.0,STARLINK-3388,PAYLOAD,2022-03-13 22:00:01,15.65037185,0.0001296,53.2174,7.9788,49.2393,21.3394,-0.0078129,-0.00718024,0.0,0 STARLINK-3388,1 51131U 22005AD  22072.91668981 -.00718024  00000-0 -78129-2 0  9994,2 51131  53.2174   7.9788 0001296  49.2393  21.3394 15.65037185  3693,6751.269,92.011,374.009,372.259,0.0
51131.0,STARLINK-3388,PAYLOAD,2022-03-14 04:00:00,15.64655322,0.0001152,53.2174,6.7573,62.5821,337.0935,-0.0079458,-0.00719029,0.0,0 STARLINK-3388,1 51131U 22005AD  22073.16667824 -.00719029  00000-0 -79458-2 0  9999,2 51131  53.2174   6.7573 0001152  62.5821 337.0935 15.64655322  9835,6752.3669999999975,92.033,375.01,373.454,0.0
51131.0,STARLINK-3388,PAYLOAD,2022-03-14 14:00:01,15.64015773,0.0001262999999999,53.2176,4.7183,64.9696,162.613,-0.008104,-0.0071523,0.0,0 STARLINK-3388,1 51131U 22005AD  22073.58335648 -.00715230  00000-0 -81040-2 0  9991,2 51131  53.2176   4.7183 0001263  64.9696 162.6130 15.64015773  3676,6754.208000000001,92.071,376.926,375.22,0.0
51131.0,STARLINK-3388,PAYLOAD,2022-03-14 20:00:01,15.63634047,0.000146,53.2176,3.497,53.8468,141.9143,-0.0082277999999999,-0.00715267,0.0,0 STARLINK-3388,1 51131U 22005AD  22073.83334491 -.00715267  00000-0 -82278-2 0  9998,2 51131  53.2176   3.4970 0001460  53.8468 141.9143 15.63634047  3673,6755.307,92.093,378.158,376.186,0.0
51131.0,STARLINK-3388,PAYLOAD,2022-03-14 22:00:00,15.63507234,0.0001318,53.2177,3.0907,52.3592,252.7399,-0.0082983,-0.00717544,0.0,0 STARLINK-3388,1 51131U 22005AD  22073.91667824 -.00717544  00000-0 -82983-2 0  9999,2 51131  53.2177   3.0907 0001318  52.3592 252.7399 15.63507234  9952,6755.672,92.101,378.42800000000005,376.647,0.0
51131.0,STARLINK-3388,PAYLOAD,2022-03-15 02:00:01,15.63250974,0.000156,53.2174,2.2781,47.1287,116.5318,-0.0083585999999999,-0.00715684,0.0,0 STARLINK-3388,1 51131U 22005AD  22074.08334491 -.00715684  00000-0 -83586-2 0  9992,2 51131  53.2174   2.2781 0001560  47.1287 116.5318 15.63250974  3679,6756.411,92.116,379.33,377.222,0.0
51131.0,STARLINK-3388,PAYLOAD,2022-03-15 20:00:01,15.62103379,0.0001435,53.2176,358.6191,42.1543,23.1376,-0.0087309,-0.00714623,0.0,0 STARLINK-3388,1 51131U 22005AD  22074.83334491 -.00714623  00000-0 -87309-2 0  9994,2 51131  53.2176 358.6191 0001435  42.1543  23.1376 15.62103379 10091,6759.719,92.183,382.554,380.614,0.0
51131.0,STARLINK-3388,PAYLOAD,2022-03-15 22:00:00,15.61975592,0.0001585,53.2175,358.2137,44.5811,129.5893,-0.0087716,-0.00714422,0.0,0 STARLINK-3388,1 51131U 22005AD  22074.91667824 -.00714422  00000-0 -87716-2 0  9991,2 51131  53.2175 358.2137 0001585  44.5811 129.5893 15.61975592  3681,6760.0880000000025,92.191,383.024,380.881,0.0
51131.0,STARLINK-3388,PAYLOAD,2022-03-16 14:00:01,15.60954968,0.0001205,53.2174,354.9679,55.5598,268.2611,-0.0091121,-0.00713251,0.0,0 STARLINK-3388,1 51131U 22005AD  22075.58334491 -.00713251  00000-0 -91121-2 0  9990,2 51131  53.2174 354.9679 0001205  55.5598 268.2611 15.60954968  3689,6763.034000000002,92.251,385.714,384.084,0.0
51131.0,STARLINK-3388,PAYLOAD,2022-03-16 20:00:01,15.60574495,0.0001375,53.2175,353.7523,53.1817,236.1248,-0.0092801,-0.007156,0.0,0 STARLINK-3388,1 51131U 22005AD  22075.83334491 -.00715600  00000-0 -92801-2 0  9994,2 51131  53.2175 353.7523 0001375  53.1817 236.1248 15.60574495 10255,6764.134,92.274,386.929,385.068,0.0
51131.0,STARLINK-3388,PAYLOAD,2022-03-17 14:00:01,15.59424435,0.0001398,53.2174,350.1091,53.9428,129.7571,-0.0096362,-0.00711272,0.0,0 STARLINK-3388,1 51131U 22005AD  22076.58334491 -.00711272  00000-0 -96362-2 0  9994,2 51131  53.2174 350.1091 0001398  53.9428 129.7571 15.59424435  3700,6767.459,92.342,390.27,388.378,0.0
51131.0,STARLINK-3388,PAYLOAD,2022-03-17 22:00:00,15.58915473,0.0001399,53.2177,348.4932,56.773,198.9933,-0.009854,-0.00713161,0.0,0 STARLINK-3388,1 51131U 22005AD  22076.91667824 -.00713161  00000-0 -98540-2 0  9999,2 51131  53.2177 348.4932 0001399  56.7730 198.9933 15.58915473  3701,6768.932,92.372,391.744,389.85,0.0
51131.0,STARLINK-3388,PAYLOAD,2022-03-18 06:00:00,15.58405856,0.0001158,53.2173,346.8782,62.5471,264.6728,-0.01004,-0.00712654,0.0,0 STARLINK-3388,1 51131U 22005AD  22077.25001157 -.00712654  00000-0 -10040-1 0  9992,2 51131  53.2173 346.8782 0001158  62.5471 264.6728 15.58405856 10476,6770.406999999997,92.402,393.056,391.48800000000006,0.0
